NORAD_CAT_ID,OBJECT_NAME,OBJECT_TYPE,EPOCH,MEAN_MOTION,ECCENTRICITY,INCLINATION,RA_OF_ASC_NODE,ARG_OF_PERICENTER,MEAN_ANOMALY,BSTAR,MEAN_MOTION_DOT,MEAN_MOTION_DDOT,TLE_LINE0,TLE_LINE1,TLE_LINE2,SEMIMAJOR_AXIS,PERIOD,APOGEE,PERIGEE,DECAYED
50170.0,STARLINK-3245,PAYLOAD,2023-11-29 10:56:45,15.08843809,0.0001626,53.2186,20.6772,81.8231,278.2945,0.00046494,7.12e-05,0.0,0 STARLINK-3245,1 50170U 21125Q   23333.45607737  .00007120  00000-0  46494-3 0  9997,2 50170  53.2186  20.6772 0001626  81.8231 278.2945 15.08843809111109,6917.869,95.437,540.859,538.609,0.0
50170.0,STARLINK-3245,PAYLOAD,2023-11-30 09:12:08,15.08849067,0.0001803,53.2196,16.5152,87.2523,272.8675,0.00010685,1.413e-05,0.0,0 STARLINK-3245,1 50170U 21125Q   23334.38343287  .00001413  00000-0  10685-3 0  9999,2 50170  53.2196  16.5152 0001803  87.2523 272.8675 15.08849067110760,6917.853,95.437,540.965,538.47,0.0
50170.0,STARLINK-3245,PAYLOAD,2023-12-01 07:27:32,15.08841559,0.0001964,53.2194,12.3522,78.7201,281.4012,4.3298e-05,4.01e-06,0.0,0 STARLINK-3245,1 50170U 21125Q   23335.31079520  .00000401  00000-0  43298-4 0  9992,2 50170  53.2194  12.3522 0001964  78.7201 281.4012 15.08841559110904,6917.876,95.437,541.099,538.382,0.0
50170.0,STARLINK-3245,PAYLOAD,2023-12-01 12:13:41,15.08848816,0.0001426,53.2169,11.4533,114.3912,245.7229,4.1467e-05,3.72e-06,0.0,0 STARLINK-3245,1 50170U 21125Q   23335.50950656  .00000372  00000-0  41467-4 0  9994,2 50170  53.2169  11.4533 0001426 114.3912 245.7229 15.08848816111410,6917.853,95.437,540.705,538.732,0.0
50170.0,STARLINK-3245,PAYLOAD,2023-12-02 08:53:41,15.08877396,0.0001647,53.219,7.5957,76.653,283.4646,0.00069825,0.00010853,0.0,0 STARLINK-3245,1 50170U 21125Q   23336.37061509  .00010853  00000-0  69825-3 0  9992,2 50170  53.2190   7.5957 0001647  76.6530 283.4646 15.08877396111069,6917.766,95.435,540.77,538.492,0.0
50170.0,STARLINK-3245,PAYLOAD,2023-12-02 23:12:10,15.08840211,0.0001325,53.2181,4.915,96.1368,263.9775,-0.00018932,-3.3e-05,0.0,0 STARLINK-3245,1 50170U 21125Q   23336.96678325 -.00003300  00000-0 -18932-3 0  9991,2 50170  53.2181   4.9150 0001325  96.1368 263.9775 15.08840211111156,6917.88,95.438,540.661,538.828,0.0
50170.0,STARLINK-3245,PAYLOAD,2023-12-03 08:44:30,15.08810411,0.0001525,53.2179,3.1309,74.0123,286.1037,-0.00047446,-7.825e-05,0.0,0 STARLINK-3245,1 50170U 21125Q   23337.36424500 -.00007825  00000-0 -47446-3 0  9998,2 50170  53.2179   3.1309 0001525  74.0123 286.1037 15.08810411111210,6917.971,95.439,540.891,538.781,0.0
50170.0,STARLINK-3245,PAYLOAD,2023-12-03 23:02:59,15.0881726,0.0001646,53.2182,0.4524,76.1373,283.9802,-0.00021511,-3.708e-05,0.0,0 STARLINK-3245,1 50170U 21125Q   23337.96040775 -.00003708  00000-0 -21511-3 0  9993,2 50170  53.2182   0.4524 0001646  76.1373 283.9802 15.08817260111301,6917.95,95.439,540.954,538.676,0.0
50170.0,STARLINK-3245,PAYLOAD,2023-12-04 11:46:04,15.0883142,0.0001865,53.2176,358.0728,105.3445,254.7753,-0.0001156,-2.127e-05,0.0,0 STARLINK-3245,1 50170U 21125Q   23338.49032552 -.00002127  00000-0 -11560-3 0  9993,2 50170  53.2176 358.0728 0001865 105.3445 254.7753 15.08831420111383,6917.907,95.438,541.062,538.481,0.0
50170.0,STARLINK-3245,PAYLOAD,2023-12-05 08:26:04,15.08870376,0.0001727,53.2176,354.2099,72.1526,287.9655,0.0010563,0.00016577,0.0,0 STARLINK-3245,1 50170U 21125Q   23339.35144531  .00016577  00000-0  10563-2 0  9993,2 50170  53.2176 354.2099 0001727  72.1526 287.9655 15.08870376111517,6917.788,95.436,540.847,538.458,0.0
50170.0,STARLINK-3245,PAYLOAD,2023-12-06 09:52:14,15.08856163,0.0001838,53.2184,349.449,79.9367,280.1833,0.00025662,3.8e-05,0.0,0 STARLINK-3245,1 50170U 21125Q   23340.41127605  .00003800  00000-0  25662-3 0  9997,2 50170  53.2184 349.4490 0001838  79.9367 280.1833 15.08856163111676,6917.831,95.437,540.967,538.424,0.0
50170.0,STARLINK-3245,PAYLOAD,2023-12-07 00:10:42,15.0883919,0.000148,53.2174,346.7732,95.6583,264.4578,-0.00012295,-2.244e-05,0.0,0 STARLINK-3245,1 50170U 21125Q   23341.00743592 -.00002244  00000-0 -12295-3 0  9993,2 50170  53.2174 346.7732 0001480  95.6583 264.4578 15.08839190111764,6917.883,95.438,540.772,538.724,0.0
50170.0,STARLINK-3245,PAYLOAD,2023-12-07 06:32:15,15.08839362,0.000164,53.2171,345.5858,83.7251,276.3927,0.00011143,1.486e-05,0.0,0 STARLINK-3245,1 50170U 21125Q   23341.27239757  .00001486  00000-0  11143-3 0  9991,2 50170  53.2171 345.5858 0001640  83.7251 276.3927 15.08839362112284,6917.882,95.438,540.882,538.613,0.0
50170.0,STARLINK-3245,PAYLOAD,2023-12-08 06:23:02,15.08844317,0.0001786,53.2174,341.1264,79.4692,280.6502,0.00022212,3.249e-05,0.0,0 STARLINK-3245,1 50170U 21125Q   23342.26600003  .00003249  00000-0  22212-3 0  9995,2 50170  53.2174 341.1264 0001786  79.4692 280.6502 15.08844317111958,6917.867,95.437,540.968,538.497,0.0
50170.0,STARLINK-3245,PAYLOAD,2023-12-09 09:24:35,15.0884444,0.0001748,53.2171,336.0703,93.4908,266.6284,0.0002116,3.082e-05,0.0,0 STARLINK-3245,1 50170U 21125Q   23343.39208038  .00003082  00000-0  21160-3 0  9998,2 50170  53.2171 336.0703 0001748  93.4908 266.6284 15.08844440112128,6917.867,95.437,540.941,538.523,0.0
50170.0,STARLINK-3245,PAYLOAD,2023-12-10 09:15:22,15.08845646,0.0001744,53.2166,331.6089,94.8527,265.2664,0.0001484,2.075e-05,0.0,0 STARLINK-3245,1 50170U 21125Q   23344.38567902  .00002075  00000-0  14840-3 0  9994,2 50170  53.2166 331.6089 0001744  94.8527 265.2664 15.08845646112753,6917.863,95.437,540.935,538.522,0.0
50170.0,STARLINK-3245,PAYLOAD,2023-12-11 04:20:00,15.08840255,0.0001798,53.2176,328.0364,99.1542,260.9654,9.6853e-05,1.254e-05,0.0,0 STARLINK-3245,1 50170U 21125Q   23345.18056105  .00001254  00000-0  96853-4 0  9994,2 50170  53.2176 328.0364 0001798  99.1542 260.9654 15.08840255112396,6917.88,95.438,540.988,538.501,0.0
50170.0,STARLINK-3245,PAYLOAD,2023-12-11 05:55:23,15.08840235,0.0001757,53.2175,327.7392,95.9602,264.1591,8.9545e-05,1.137e-05,0.0,0 STARLINK-3245,1 50170U 21125Q   23345.24680144  .00001137  00000-0  89545-4 0  9997,2 50170  53.2175 327.7392 0001757  95.9602 264.1591 15.08840235112886,6917.88,95.438,540.96,538.529,0.0
50170.0,STARLINK-3245,PAYLOAD,2023-12-12 05:46:10,15.08844107,0.000174,53.2183,323.2794,94.786,265.3331,0.00010073,1.316e-05,0.0,0 STARLINK-3245,1 50170U 21125Q   23346.24040012  .00001316  00000-0  10073-3 0  9990,2 50170  53.2183 323.2794 0001740  94.7860 265.3331 15.08844107112558,6917.868,95.437,540.937,538.529,0.0
50170.0,STARLINK-3245,PAYLOAD,2023-12-13 04:01:35,15.08836456,0.0001848,53.2189,319.1238,104.4377,255.682,6.4999e-05,7.46e-06,0.0,0 STARLINK-3245,1 50170U 21125Q   23347.16776770  .00000746  00000-0  64999-4 0  9992,2 50170  53.2189 319.1238 0001848 104.4377 255.6820 15.08836456112690,6917.891,95.438,541.035,538.478,0.0
50170.0,STARLINK-3245,PAYLOAD,2023-12-13 05:36:58,15.08835059,0.0001794,53.2188,318.8257,100.0855,260.0339,4.5244e-05,4.32e-06,0.0,0 STARLINK-3245,1 50170U 21125Q   23347.23400872  .00000432  00000-0  45244-4 0  9991,2 50170  53.2188 318.8257 0001794 100.0855 260.0339 15.08835059113187,6917.895,95.438,541.002,538.519,0.0
50170.0,STARLINK-3245,PAYLOAD,2023-12-14 05:27:45,15.08835147,0.0001648,53.2187,314.3615,89.548,270.5701,4.5117e-07,-2.81e-06,0.0,0 STARLINK-3245,1 50170U 21125Q   23348.22761422 -.00000281  00000-0  45117-6 0  9996,2 50170  53.2187 314.3615 0001648  89.5480 270.5701 15.08835147112858,6917.895,95.438,540.9,538.62,0.0
50170.0,STARLINK-3245,PAYLOAD,2023-12-15 03:43:09,15.08842395,0.0001813,53.2191,310.193,76.5879,283.5315,0.00013851,1.917e-05,0.0,0 STARLINK-3245,1 50170U 21125Q   23349.15496917  .00001917  00000-0  13851-3 0  9996,2 50170  53.2191 310.1930 0001813  76.5879 283.5315 15.08842395112992,6917.873,95.437,540.992,538.484,0.0
50170.0,STARLINK-3245,PAYLOAD,2023-12-15 05:18:32,15.0884476,0.0001828,53.2192,309.8994,76.7115,283.4081,0.00016101,2.276e-05,0.0,0 STARLINK-3245,1 50170U 21125Q   23349.22120800  .00002276  00000-0  16101-3 0  9999,2 50170  53.2192 309.8994 0001828  76.7115 283.4081 15.08844760113481,6917.866,95.437,540.995,538.466,0.0
50170.0,STARLINK-3245,PAYLOAD,2023-12-16 03:33:57,15.08826856,0.0001814,53.2185,305.7421,72.9287,287.1904,0.0006183,9.562e-05,0.0,0 STARLINK-3245,1 50170U 21125Q   23350.14857973  .00009562  00000-0  61830-3 0  9994,2 50170  53.2185 305.7421 0001814  72.9287 287.1904 15.08826856113140,6917.921,95.438,541.04,538.531,0.0
50170.0,STARLINK-3245,PAYLOAD,2023-12-17 03:24:43,15.08849975,0.0001567,53.2184,301.2767,97.7411,262.3759,-2.2267e-05,-6.43e-06,0.0,0 STARLINK-3245,1 50170U 21125Q   23351.14216633 -.00000643  00000-0 -22267-4 0  9992,2 50170  53.2184 301.2767 0001567  97.7411 262.3759 15.08849975113298,6917.85,95.437,540.799,538.631,0.0
50170.0,STARLINK-3245,PAYLOAD,2023-12-18 03:15:29,15.08853555,0.0001731,53.2178,296.8153,105.7468,254.3715,0.00023176,3.404e-05,0.0,0 STARLINK-3245,1 50170U 21125Q   23352.13575992  .00003404  00000-0  23176-3 0  9993,2 50170  53.2178 296.8153 0001731 105.7468 254.3715 15.08853555113926,6917.839,95.437,540.901,538.506,0.0
50170.0,STARLINK-3245,PAYLOAD,2023-12-19 01:30:54,15.08829175,0.0001615,53.2176,292.6532,120.8744,239.2407,-8.2896e-05,-1.607e-05,0.0,0 STARLINK-3245,1 50170U 21125Q   23353.06313468 -.00001607  00000-0 -82896-4 0  9994,2 50170  53.2176 292.6532 0001615 120.8744 239.2407 15.08829175113588,6917.913,95.438,540.896,538.661,0.0
50170.0,STARLINK-3245,PAYLOAD,2023-12-20 02:57:04,15.08844684,0.0001402,53.2179,287.8999,101.916,258.1989,0.00020818,3.027e-05,0.0,0 STARLINK-3245,1 50170U 21125Q   23354.12296969  .00003027  00000-0  20818-3 0  9999,2 50170  53.2179 287.8999 0001402 101.9160 258.1989 15.08844684113745,6917.866,95.437,540.701,538.761,0.0
50170.0,STARLINK-3245,PAYLOAD,2023-12-21 02:47:51,15.0885239,0.0001253,53.2177,283.4377,77.1585,282.9547,0.00031084,4.664e-05,0.0,0 STARLINK-3245,1 50170U 21125Q   23355.11656887  .00004664  00000-0  31084-3 0  9993,2 50170  53.2177 283.4377 0001253  77.1585 282.9547 15.08852390114372,6917.843,95.437,540.574,538.841,0.0
